[{"OBJECT_NAME":"NUSAT-48 (HENRIETTA LEAVITT)","OBJECT_ID":"2024-149AG","EPOCH":"2026-03-09T19:19:17.269536","MEAN_MOTION":15.29812597,"ECCENTRICITY":0.00027538,"INCLINATION":97.3923,"RA_OF_ASC_NODE":150.8264,"ARG_OF_PERICENTER":263.3026,"MEAN_ANOMALY":96.7901,"EPHEMERIS_TYPE":0,"CLASSIFICATION_TYPE":"U","NORAD_CAT_ID":60498,"ELEMENT_SET_NO":999,"REV_AT_EPOCH":8694,"BSTAR":0.00045211745,"MEAN_MOTION_DOT":0.00012988,"MEAN_MOTION_DDOT":0},{"OBJECT_NAME":"STARLINK-34185","OBJECT_ID":"2025-144W","EPOCH":"2026-03-09T13:09:33.638400","MEAN_MOTION":15.30178478,"ECCENTRICITY":0.00011685,"INCLINATION":53.159,"RA_OF_ASC_NODE":181.4499,"ARG_OF_PERICENTER":63.7059,"MEAN_ANOMALY":296.4061,"EPHEMERIS_TYPE":0,"CLASSIFICATION_TYPE":"U","NORAD_CAT_ID":64744,"ELEMENT_SET_NO":999,"REV_AT_EPOCH":3969,"BSTAR":0.0014184598,"MEAN_MOTION_DOT":0.0004186,"MEAN_MOTION_DDOT":0}]
